STARLINK-2144           
1 47734U 21017N   25074.27381255  .00018599  00000+0  12637-2 0  9999
2 47734  53.0563  25.0952 0001661  92.3563 267.7617 15.06414402223576
STARLINK-2146           
1 47735U 21017P   25074.61385067  .00018139  00000+0  11998-2 0  9992
2 47735  53.0542 308.6575 0001346 125.7716 234.3399 15.07428785224653
STARLINK-2147           
1 47736U 21017Q   25074.10887129  .00029611  00000+0  19973-2 0  9991
2 47736  53.0560  15.8393 0001501  80.9646 279.1513 15.06421063223729
STARLINK-2150           
1 47739U 21017T   25074.30375850  .00021682  00000+0  14693-2 0  9993
2 47739  53.0543  39.9592 0001540  79.6134 280.5029 15.06417902223401
STARLINK-2156           
1 47742U 21017W   25074.11254667  .00030869  00000+0  20806-2 0  9998
2 47742  53.0561  15.8221 0001420  73.4465 286.6680 15.06428436223722
STARLINK-2159           
1 47745U 21017Z   25074.54288305  .00014202  00000+0  97019-3 0  9998
2 47745  53.0568  23.8889 0001603  72.6812 287.4352 15.06409007223594
STARLINK-2160           
1 47746U 21017AA  25074.13743540  .00035640  00000+0  23974-2 0  9998
2 47746  53.0559  25.7102 0002903  75.1952 284.9358 15.06431090223529
STARLINK-2161           
1 47747U 21017AB  25074.13467149 -.00002117  00000+0 -12330-3 0  9997
2 47747  53.0553  15.7209 0001185  65.7999 294.3114 15.06394821223703
STARLINK-2162           
1 47748U 21017AC  25074.52538754  .00001047  00000+0  89196-4 0  9996
2 47748  53.0569  13.9688 0002016  81.7892 278.3326 15.06398592223735
STARLINK-2163           
1 47749U 21017AD  25074.20836961  .00024666  00000+0  16678-2 0  9998
2 47749  53.0553  15.3894 0001406 118.3702 241.7429 15.06427604223682
STARLINK-2164           
1 47750U 21017AE  25074.51800016  .00012299  00000+0  84287-3 0  9997
2 47750  53.0547  14.0034 0001230  52.9252 307.1849 15.06411711223738
STARLINK-2169           
1 47752U 21017AG  25074.11762100  .00027222  00000+0  18369-2 0  9995
2 47752  53.0553  20.7983 0001428  87.8647 272.2506 15.06449612223652
STARLINK-2170           
1 47753U 21017AH  25074.55762941  .00013175  00000+0  90168-3 0  9997
2 47753  53.0561  23.8237 0002718  82.7632 277.3666 15.06401390223642
STARLINK-2171           
1 47754U 21017AJ  25074.59447016  .00026344  00000+0  17779-2 0  9993
2 47754  53.0557  23.6547 0001341  81.3269 278.7872 15.06461485223614
STARLINK-2178           
1 47760U 21017AQ  25074.60831191  .00010831  00000+0  74495-3 0  9996
2 47760  53.0546  33.5924 0001316  88.5690 271.5449 15.06398523223496
STARLINK-2180           
1 47762U 21017AS  25074.59863788  .00004986  00000+0  35347-3 0  9990
2 47762  53.0552  38.6496 0001296 102.4662 257.6472 15.06393009223414
STARLINK-2184           
1 47766U 21017AW  25074.60137628  .00009583  00000+0  66117-3 0  9990
2 47766  53.0533  38.6158 0001165 101.0662 259.0458 15.06408549223384
STARLINK-2185           
1 47767U 21017AX  25074.56131833  .00002542  00000+0  18951-3 0  9999
2 47767  53.0557  23.8051 0001448  90.9731 269.1424 15.06390082223653
STARLINK-2193           
1 47770U 21017BA  25074.55256016  .00012683  00000+0  86873-3 0  9998
2 47770  53.0553  18.8450 0001346  82.5872 277.5270 15.06403163223691
STARLINK-2194           
1 47771U 21017BB  25074.56363267  .00013113  00000+0  89768-3 0  9992
2 47771  53.0559  18.7978 0002272  82.2126 277.9121 15.06395902223702
STARLINK-2195           
1 47772U 21017BC  25074.28762958  .00024053  00000+0  16274-2 0  9998
2 47772  53.0545  35.0327 0001494  78.1632 281.9525 15.06417508223428
STARLINK-2196           
1 47773U 21017BD  25074.28394900  .00010495  00000+0  72221-3 0  9997
2 47773  53.0545  35.0506 0001492  82.5529 277.5629 15.06410142223412
STARLINK-2209           
1 47776U 21017BG  25074.58343114  .00019865  00000+0  13485-2 0  9990
2 47776  53.0547  23.7057 0001611  81.9309 278.1863 15.06406540223621
STARLINK-2210           
1 47777U 21017BH  25074.25537926  .00026554  00000+0  17938-2 0  9991
2 47777  53.0551  25.1773 0001478  74.0289 286.0863 15.06422172223570
STARLINK-2211           
1 47778U 21017BJ  25074.55394219  .00006317  00000+0  44236-3 0  9998
2 47778  53.0543  23.8355 0001061  53.6813 306.4274 15.06417105223615
STARLINK-2213           
1 47780U 21017BL  25074.57973965  .00003067  00000+0  22463-3 0  9991
2 47780  53.0570  23.7224 0001248  96.3305 263.7826 15.06408061223652
STARLINK-2257           
1 47787U 21018A   25074.36595809  .00003131  00000+0  22896-3 0  9995
2 47787  53.0546  64.6832 0001670  90.9371 269.1809 15.06402038222437
STARLINK-2314           
1 47788U 21018B   25074.31112039  .00016013  00000+0  10909-2 0  9995
2 47788  53.0551  39.9249 0001497 110.5962 249.5188 15.06418826222796
STARLINK-2315           
1 47789U 21018C   25074.29407763  .00003645  00000+0  26332-3 0  9999
2 47789  53.0546  45.0069 0001364  85.4675 274.6470 15.06422847222716
STARLINK-2319           
1 47790U 21018D   25074.60093454  .00001289  00000+0  10547-3 0  9997
2 47790  53.0553  33.6272 0001425  91.3059 268.8094 15.06389491222900
STARLINK-2322           
1 47791U 21018E   25074.28855735  .00000057  00000+0  22742-4 0  9993
2 47791  53.0553  65.0316 0001471 101.0482 259.0672 15.06401492222437
STARLINK-2334           
1 47792U 21018F   25074.30143888 -.00005250  00000+0 -33380-3 0  9997
2 47792  53.0553  44.9696 0002496 149.3251 210.7884 15.06398794222712
STARLINK-2338           
1 47793U 21018G   25074.31618941  .00013277  00000+0  90807-3 0  9999
2 47793  53.0547  44.9047 0001475 107.1781 252.9369 15.06419500222706
STARLINK-2373           
1 47796U 21018K   25074.32357081  .00014554  00000+0  99355-3 0  9994
2 47796  53.0552  44.8705 0001688  74.3503 285.7672 15.06415140222716
STARLINK-2377           
1 47797U 21018L   25074.29361473  .00004269  00000+0  30531-3 0  9994
2 47797  53.0541  70.0087 0001594 100.9101 259.2067 15.06399535222358
STARLINK-2379           
1 47798U 21018M   25074.60001501  .00006744  00000+0  47123-3 0  9998
2 47798  53.0543  43.6271 0001698  90.5564 269.5619 15.06399072222751
STARLINK-2380           
1 47799U 21018N   25074.19824095  .00012595  00000+0  86259-3 0  9998
2 47799  53.0539  45.4372 0001512 102.1302 257.9856 15.06414895222681
STARLINK-2381           
1 47800U 21018P   25074.22035375  .00015500  00000+0  10568-2 0  9998
2 47800  53.0546  45.3342 0001507 109.0336 251.0816 15.06413593222691
STARLINK-2383           
1 47802U 21018R   25074.36734325  .00000812  00000+0  73387-4 0  9996
2 47802  53.0552  69.6770 0001547  81.8033 278.3132 15.06402558222376
STARLINK-2384           
1 47803U 21018S   25074.58334491  .01205705  00000+0  30234-1 0  9991
2 47803  53.0550  42.1514 0001110  78.9572 111.4001 15.36964430  5835
STARLINK-2385           
1 47804U 21018T   25074.31251297  .00014746  00000+0  10064-2 0  9997
2 47804  53.0540  44.9237 0001365  85.5600 274.5545 15.06413211222709
STARLINK-2386           
1 47805U 21018U   25074.61110457  .00004821  00000+0  34227-3 0  9994
2 47805  53.0536  43.8184 0001533  63.3254 296.7891 15.06406282222755
STARLINK-2387           
1 47806U 21018V   25074.34983789  .00008830  00000+0  61093-3 0  9996
2 47806  53.0530  59.7644 0001542  88.0940 272.0226 15.06401962222561
STARLINK-2388           
1 47807U 21018W   25074.60462181  .00007836  00000+0  54427-3 0  9992
2 47807  53.0545  33.6124 0001591  97.5157 262.6012 15.06404767222880
STARLINK-2389           
1 47808U 21018X   25074.23556656 -.00000030  00000+0  16854-4 0  9996
2 47808  53.0531  60.2698 0001416  93.3274 266.7877 15.06396217222141
STARLINK-2391           
1 47810U 21018Z   25074.39821150  .00001139  00000+0  95359-4 0  9997
2 47810  53.0536  74.5348 0001453  94.2482 265.8672 15.06400996222357
STARLINK-2393           
1 47812U 21018AB  25074.40926441  .00001370  00000+0  11085-3 0  9990
2 47812  53.0543  74.4891 0001648  91.1296 268.9882 15.06404077222298
STARLINK-2395           
1 47814U 21018AD  25074.35120939  .00003383  00000+0  24585-3 0  9999
2 47814  53.0537  64.7502 0001416  94.2759 265.8392 15.06411480222495
STARLINK-2396           
1 47815U 21018AE  25074.38300006  .00009256  00000+0  63979-3 0  9993
2 47815  53.0540  59.6051 0001599 103.1881 256.9287 15.06381858222501
STARLINK-2399           
1 47816U 21018AF  25074.25906592  .00003449  00000+0  25029-3 0  9994
2 47816  53.0550  65.1622 0001158  88.4291 271.6830 15.06406953222412
STARLINK-2400           
1 47817U 21018AG  25074.34382333 -.00004478  00000+0 -28201-3 0  9996
2 47817  53.0540  64.7800 0001346  81.1319 278.9822 15.06391864222421
STARLINK-2401           
1 47818U 21018AH  25074.28261869  .00011550  00000+0  79306-3 0  9999
2 47818  53.0533  70.5203 0001693  96.3322 263.7860 15.06398024222343
STARLINK-2402           
1 47819U 21018AJ  25074.41292223  .00010139  00000+0  69853-3 0  9991
2 47819  53.0536  64.4614 0001539 105.2511 254.8648 15.06404247222502
STARLINK-2403           
1 47820U 21018AK  25074.58334491  .01219345  00000+0  28037-1 0  9993
2 47820  53.0554  72.0007 0001249  80.4216  22.0393 15.39611735  5799
STARLINK-2406           
1 47821U 21018AL  25074.24060476  .00003847  00000+0  27674-3 0  9991
2 47821  53.0542  65.2540 0001380  91.7375 268.3772 15.06434872222415
STARLINK-2407           
1 47822U 21018AM  25074.31618109  .00002508  00000+0  18716-3 0  9992
2 47822  53.0549  74.8973 0001377  88.4575 271.6571 15.06402718222294
STARLINK-2408           
1 47823U 21018AN  25074.26549772  .00003667  00000+0  26498-3 0  9999
2 47823  53.0536  65.1223 0001661  96.4467 263.6711 15.06391224222428
STARLINK-2409           
1 47824U 21018AP  25074.25537767  .00003188  00000+0  23279-3 0  9992
2 47824  53.0541  65.1771 0001443  96.0840 264.0314 15.06408931222419
STARLINK-2410           
1 47825U 21018AQ  25074.20745405  .00003360  00000+0  24432-3 0  9992
2 47825  53.0537  65.3924 0001368  94.6415 265.4730 15.06401906222417
